{
  "type": "FeatureCollection",
  "features": [
    {
      "type": "Feature",
      "properties": {
        "norad_id": 66911,
        "name": "1998-067XX",
        "group": "last-30-days",
        "lat": -23.181424686323588,
        "lon": 82.92295987447952,
        "alt_km": 410.1783012132246,
        "timestamp": "2025-12-20T16:47:35.025310+00:00",
        "meta_object_name": "1998-067XX",
        "meta_object_id": "1998-067XX",
        "meta_epoch": "2025-12-19T19:18:04.960512",
        "meta_mean_motion": 15.52964022,
        "meta_eccentricity": 0.00039341,
        "meta_inclination": 51.6304,
        "meta_ra_of_asc_node": 107.215,
        "meta_arg_of_pericenter": 254.2011,
        "meta_mean_anomaly": 105.8545,
        "meta_ephemeris_type": 0,
        "meta_classification_type": "U",
        "meta_norad_cat_id": 66911,
        "meta_element_set_no": 999,
        "meta_rev_at_epoch": 270,
        "meta_bstar": 0.00082358587,
        "meta_mean_motion_dot": 0.00052143,
        "meta_mean_motion_ddot": 0,
        "tle_line1": "1 66911U 98067XX  25353.80422408  .00052143  00000+0  82359-3 0  9993",
        "tle_line2": "2 66911  51.6304 107.2150 0003934 254.2011 105.8545 15.52964022  2707"
      },
      "geometry": {
        "type": "Point",
        "coordinates": [
          82.92295987447952,
          -23.181424686323588
        ]
      }
    },
    {
      "type": "Feature",
      "properties": {
        "norad_id": 66912,
        "name": "1998-067XY",
        "group": "last-30-days",
        "lat": -50.892536295076276,
        "lon": 25.790958529205266,
        "alt_km": 413.23140578663333,
        "timestamp": "2025-12-20T16:47:35.025320+00:00",
        "meta_object_name": "1998-067XY",
        "meta_object_id": "1998-067XY",
        "meta_epoch": "2025-12-19T14:52:14.043072",
        "meta_mean_motion": 15.51780846,
        "meta_eccentricity": 0.0004012,
        "meta_inclination": 51.6307,
        "meta_ra_of_asc_node": 108.231,
        "meta_arg_of_pericenter": 260.881,
        "meta_mean_anomaly": 99.1725,
        "meta_ephemeris_type": 0,
        "meta_classification_type": "U",
        "meta_norad_cat_id": 66912,
        "meta_element_set_no": 999,
        "meta_rev_at_epoch": 267,
        "meta_bstar": 0.00063264,
        "meta_mean_motion_dot": 0.00038197,
        "meta_mean_motion_ddot": 0,
        "tle_line1": "1 66912U 98067XY  25353.61960698  .00038197  00000+0  63264-3 0  9998",
        "tle_line2": "2 66912  51.6307 108.2310 0004012 260.8810  99.1725 15.51780846  2678"
      },
      "geometry": {
        "type": "Point",
        "coordinates": [
          25.790958529205266,
          -50.892536295076276
        ]
      }
    },
    {
      "type": "Feature",
      "properties": {
        "norad_id": 66913,
        "name": "2025-284A",
        "group": "last-30-days",
        "lat": -45.94215125613526,
        "lon": 109.63186017777839,
        "alt_km": 536.7041068423878,
        "timestamp": "2025-12-20T16:47:35.025330+00:00",
        "meta_object_name": "2025-284A",
        "meta_object_id": "2025-284A",
        "meta_epoch": "2025-12-18T06:24:29.359008",
        "meta_mean_motion": 15.16462178,
        "meta_eccentricity": 0.00203688,
        "meta_inclination": 80.4052,
        "meta_ra_of_asc_node": 122.7714,
        "meta_arg_of_pericenter": 156.4299,
        "meta_mean_anomaly": 203.7866,
        "meta_ephemeris_type": 0,
        "meta_classification_type": "U",
        "meta_norad_cat_id": 66913,
        "meta_element_set_no": 999,
        "meta_rev_at_epoch": 196,
        "meta_bstar": 0.00046237905,
        "meta_mean_motion_dot": 9.066e-05,
        "meta_mean_motion_ddot": 0,
        "tle_line1": "1 66913U 25284A   25352.26700647  .00009066  00000+0  46238-3 0  9991",
        "tle_line2": "2 66913  80.4052 122.7714 0020368 156.4299 203.7866 15.16462178  1964"
      },
      "geometry": {
        "type": "Point",
        "coordinates": [
          109.63186017777839,
          -45.94215125613526
        ]
      }
    },
    {
      "type": "Feature",
      "properties": {
        "norad_id": 66914,
        "name": "2025-284B",
        "group": "last-30-days",
        "lat": 4.193449607485987,
        "lon": 120.38670574161443,
        "alt_km": 515.6922128413034,
        "timestamp": "2025-12-20T16:47:35.025340+00:00",
        "meta_object_name": "2025-284B",
        "meta_object_id": "2025-284B",
        "meta_epoch": "2025-12-16T06:51:11.417184",
        "meta_mean_motion": 15.18985981,
        "meta_eccentricity": 0.00081793,
        "meta_inclination": 80.4045,
        "meta_ra_of_asc_node": 125.2713,
        "meta_arg_of_pericenter": 234.9626,
        "meta_mean_anomaly": 125.0834,
        "meta_ephemeris_type": 0,
        "meta_classification_type": "U",
        "meta_norad_cat_id": 66914,
        "meta_element_set_no": 999,
        "meta_rev_at_epoch": 166,
        "meta_bstar": 0.00038444995,
        "meta_mean_motion_dot": 8.068e-05,
        "meta_mean_motion_ddot": 0,
        "tle_line1": "1 66914U 25284B   25350.28554881  .00008068  00000+0  38445-3 0  9991",
        "tle_line2": "2 66914  80.4045 125.2713 0008179 234.9626 125.0834 15.18985981  1668"
      },
      "geometry": {
        "type": "Point",
        "coordinates": [
          120.38670574161443,
          4.193449607485987
        ]
      }
    },
    {
      "type": "Feature",
      "properties": {
        "norad_id": 66915,
        "name": "HULIANWANG DIGUI-105",
        "group": "last-30-days",
        "lat": 41.943566037139654,
        "lon": -144.11216801201175,
        "alt_km": 880.8681604167441,
        "timestamp": "2025-12-20T16:47:35.025350+00:00",
        "meta_object_name": "HULIANWANG DIGUI-105",
        "meta_object_id": "2025-285A",
        "meta_epoch": "2025-12-20T12:48:37.247616",
        "meta_mean_motion": 14.03717889,
        "meta_eccentricity": 0.000804,
        "meta_inclination": 50.0049,
        "meta_ra_of_asc_node": 85.5346,
        "meta_arg_of_pericenter": 308.7207,
        "meta_mean_anomaly": 51.2978,
        "meta_ephemeris_type": 0,
        "meta_classification_type": "U",
        "meta_norad_cat_id": 66915,
        "meta_element_set_no": 999,
        "meta_rev_at_epoch": 200,
        "meta_bstar": 9.8955e-05,
        "meta_mean_motion_dot": 5e-08,
        "meta_mean_motion_ddot": 0,
        "tle_line1": "1 66915U 25285A   25354.53376444  .00000005  00000+0  98955-4 0  9998",
        "tle_line2": "2 66915  50.0049  85.5346 0008040 308.7207  51.2978 14.03717889  2009"
      },
      "geometry": {
        "type": "Point",
        "coordinates": [
          -144.11216801201175,
          41.943566037139654
        ]
      }
    },
    {
      "type": "Feature",
      "properties": {
        "norad_id": 66916,
        "name": "HULIANWANG DIGUI-106",
        "group": "last-30-days",
        "lat": 33.50829510132475,
        "lon": -128.93228352558629,
        "alt_km": 881.3300894742242,
        "timestamp": "2025-12-20T16:47:35.025363+00:00",
        "meta_object_name": "HULIANWANG DIGUI-106",
        "meta_object_id": "2025-285B",
        "meta_epoch": "2025-12-20T12:44:26.571840",
        "meta_mean_motion": 14.03702781,
        "meta_eccentricity": 0.0006822,
        "meta_inclination": 50.006,
        "meta_ra_of_asc_node": 85.5208,
        "meta_arg_of_pericenter": 301.9135,
        "meta_mean_anomaly": 58.1106,
        "meta_ephemeris_type": 0,
        "meta_classification_type": "U",
        "meta_norad_cat_id": 66916,
        "meta_element_set_no": 999,
        "meta_rev_at_epoch": 200,
        "meta_bstar": 9.2301e-05,
        "meta_mean_motion_dot": -5e-08,
        "meta_mean_motion_ddot": 0,
        "tle_line1": "1 66916U 25285B   25354.53086310 -.00000005  00000+0  92301-4 0  9999",
        "tle_line2": "2 66916  50.0060  85.5208 0006822 301.9135  58.1106 14.03702781  2005"
      },
      "geometry": {
        "type": "Point",
        "coordinates": [
          -128.93228352558629,
          33.50829510132475
        ]
      }
    },
    {
      "type": "Feature",
      "properties": {
        "norad_id": 66917,
        "name": "HULIANWANG DIGUI-107",
        "group": "last-30-days",
        "lat": 27.283462822993815,
        "lon": -120.8500392640243,
        "alt_km": 882.9267112656853,
        "timestamp": "2025-12-20T16:47:35.025373+00:00",
        "meta_object_name": "HULIANWANG DIGUI-107",
        "meta_object_id": "2025-285C",
        "meta_epoch": "2025-12-20T12:41:46.495104",
        "meta_mean_motion": 14.03662823,
        "meta_eccentricity": 0.000748,
        "meta_inclination": 50.0025,
        "meta_ra_of_asc_node": 85.5045,
        "meta_arg_of_pericenter": 311.4565,
        "meta_mean_anomaly": 48.5696,
        "meta_ephemeris_type": 0,
        "meta_classification_type": "U",
        "meta_norad_cat_id": 66917,
        "meta_element_set_no": 999,
        "meta_rev_at_epoch": 200,
        "meta_bstar": 9.1885e-05,
        "meta_mean_motion_dot": -6e-08,
        "meta_mean_motion_ddot": 0,
        "tle_line1": "1 66917U 25285C   25354.52901036 -.00000006  00000+0  91885-4 0  9997",
        "tle_line2": "2 66917  50.0025  85.5045 0007480 311.4565  48.5696 14.03662823  2009"
      },
      "geometry": {
        "type": "Point",
        "coordinates": [
          -120.8500392640243,
          27.283462822993815
        ]
      }
    }
  ]
}